DUBAISAT-1              
1 35682U 09041B   26161.10235274  .00000695  00000+0  11051-3 0  9998
2 35682  98.0043 294.4383 0011755  93.8233 266.4321 14.75112528904058
OCEANSAT-2              
1 35931U 09051A   26161.26542706  .00000052  00000+0  61037-4 0  9991
2 35931  98.2324 148.8073 0014731 257.1893 102.7628 13.99664499878361
WORLDVIEW-2 (WV-2)      
1 35946U 09055A   26161.27477405  .00000086  00000+0  43019-4 0  9992
2 35946  98.4736 234.8195 0003342 232.8848 127.2034 14.37897372874655
SMOS                    
1 36036U 09059A   26161.23995969  .00000221  00000+0  84416-4 0  9990
2 36036  98.4426 348.6768 0001330  89.4467 270.6873 14.39768809872454
YAOGAN-7                
1 36110U 09069A   26160.91262885  .00000437  00000+0  67592-4 0  9997
2 36110  98.0082  46.8244 0025910  64.1879 296.2000 14.78002486888553
TANDEM-X                
1 36605U 10030A   26160.28753286  .00000776  00000+0  40127-4 0  9997
2 36605  97.4454 168.1075 0001902  90.0350 270.1102 15.19149708885449
CARTOSAT-2B             
1 36795U 10035A   26161.30200174  .00000651  00000+0  95911-4 0  9992
2 36795  97.9955 211.8955 0010649 207.0849 152.9808 14.78652808858831
YAOGAN-10               
1 36834U 10038A   26161.34417918  .00001146  00000+0  13962-3 0  9994
2 36834  97.8983 184.8032 0001633  89.4904 326.6440 14.85326717856191
RESOURCESAT-2           
1 37387U 11015A   26161.26189154  .00000040  00000+0  38419-4 0  9990
2 37387  98.7644 228.7513 0010122 277.8570  82.1458 14.21604904785197
HAIYANG-2A              
1 37781U 11043A   26160.39491309  .00000278  00000+0  33935-3 0  9990
2 37781  99.3399 163.2429 0006307 106.3298 253.8545 13.74551006745585
RASAT                   
1 37791U 11044D   26161.30000243  .00000284  00000+0  57817-4 0  9990
2 37791  98.0567 252.8019 0019716 211.1629 242.1213 14.68159487792171
SRMSAT                  
1 37841U 11058D   26161.14545056  .00000359  00000+0  51119-4 0  9991
2 37841  19.9712 102.0891 0011931 126.5108 263.2638 14.11574082756824
PLEIADES 1A             
1 38012U 11076F   26161.33651687  .00000148  00000+0  41741-4 0  9997
2 38012  98.1971 236.5311 0001531  98.3055 335.9134 14.58566611770995
ZIYUAN 1-02C (ZY 1-02C) 
1 38038U 11079A   26161.33238385  .00000197  00000+0  79018-4 0  9996
2 38038  98.4070 228.7839 0005929 339.5803 109.1891 14.38208922758229
ARIRANG-3 (KOMPSAT-3)   
1 38338U 12025B   26161.25806758  .00000363  00000+0  81390-4 0  9998
2 38338  98.1175 118.8377 0006396 127.0372 233.1416 14.62200077750336
EXACTVIEW-1 (ADS-1B)    
1 38709U 12039C   26161.07879997  .00000091  00000+0  58756-4 0  9998
2 38709  98.9769 278.3087 0010781 186.6290 173.4747 14.24982507721691
SPOT 6                  
1 38755U 12047A   26161.33769463  .00000155  00000+0  43234-4 0  9999
2 38755  98.2117 228.7266 0001430  92.4575 267.6788 14.58558747732056
PLEIADES 1B             
1 39019U 12068A   26161.28799784  .00000232  00000+0  59714-4 0  9995
2 39019  98.1942 236.4346 0001583  94.4492 265.6888 14.58556456719845
GOKTURK 2               
1 39030U 12073A   26161.29947895  .00000024  00000+0  10384-4 0  9992
2 39030  97.6829 359.0766 0001848  59.1580 300.9812 14.75534245723491
LANDSAT 8               
1 39084U 13008A   26161.22637322  .00000251  00000+0  65752-4 0  9995
2 39084  98.2302 231.4442 0001461  96.0109 264.1256 14.57113991696881
SARAL                   
1 39086U 13009A   26161.26733241  .00000079  00000+0  45029-4 0  9992
2 39086  98.5558 347.9224 0001078 344.8345  15.2806 14.32854200694613
GAOFEN-1                
1 39150U 13018A   26161.28627551 -.00000283  00000+0 -33247-4 0  9990
2 39150  97.9092 233.4941 0015857 290.7808  69.1703 14.76527222707224
VNREDSAT 1              
1 39160U 13021B   26161.32660028  .00000551  00000+0  11168-3 0  9999
2 39160  97.9083 215.0062 0001670  89.2633 270.8762 14.64850138699284
ARIRANG-5 (KOMPSAT-5)   
1 39227U 13042A   26159.98539375  .00001848  00000+0  13611-3 0  9990
2 39227  97.6218 346.8017 0004248 139.4546 220.6997 15.04559791702625
SKYSAT-A                
1 39418U 13066C   26161.11447189  .00002334  00000+0  13546-3 0  9995
2 39418  97.3820 210.7368 0020740 343.1776  16.8765 15.12936991687412
DUBAISAT-2              
1 39419U 13066D   26161.24600860  .00004973  00000+0  30822-3 0  9994
2 39419  97.4568 151.5722 0012741  61.7839 298.4675 15.10133647685347
GPM-CORE                
1 39574U 14009C   26161.28124025  .00007975  00000+0  17029-3 0  9991
2 39574  64.9728 331.2551 0012107 270.7173  89.2581 15.45474590696743
SENTINEL-1A             
1 39634U 14016A   26161.30464014  .00000114  00000+0  33812-4 0  9991
2 39634  98.1784 168.9379 0001436  83.9838 276.1526 14.59200913649013
KAZEOSAT 1              
1 39731U 14024A   26161.29137936  .00000104  00000+0  44604-4 0  9996
2 39731  98.3202 233.9100 0001454  77.0023 283.1329 14.42077373637563
