OBJECT_NAME,OBJECT_ID,EPOCH,MEAN_MOTION,ECCENTRICITY,INCLINATION,RA_OF_ASC_NODE,ARG_OF_PERICENTER,MEAN_ANOMALY,EPHEMERIS_TYPE,CLASSIFICATION_TYPE,NORAD_CAT_ID,ELEMENT_SET_NO,REV_AT_EPOCH,BSTAR,MEAN_MOTION_DOT,MEAN_MOTION_DDOT
DUBAISAT-1,2009-041B,2026-06-10T02:27:23.276736,14.75112528,.0011755,98.0043,294.4383,93.8233,266.4321,0,U,35682,999,90405,.11050747E-3,.695E-5,0
OCEANSAT-2,2009-051A,2026-06-10T06:22:12.897984,13.99664499,.00147315,98.2324,148.8073,257.1893,102.7628,0,U,35931,999,87836,.61037236E-4,.52E-6,0
WORLDVIEW-2 (WV-2),2009-055A,2026-06-10T06:35:40.477920,14.37897372,.00033422,98.4736,234.8195,232.8848,127.2034,0,U,35946,999,87465,.43019278E-4,.86E-6,0
SMOS,2009-059A,2026-06-10T05:45:32.517216,14.39768809,.00013305,98.4426,348.6768,89.4467,270.6873,0,U,36036,999,87245,.84416107E-4,.221E-5,0
YAOGAN-7,2009-069A,2026-06-09T21:54:11.132640,14.78002486,.00259108,98.0082,46.8244,64.1879,296.2000,0,U,36110,999,88855,.67592338E-4,.437E-5,0
TANDEM-X,2010-030A,2026-06-09T06:54:02.839104,15.19149708,.00019024,97.4454,168.1075,90.0350,270.1102,0,U,36605,999,88544,.40127109E-4,.776E-5,0
CARTOSAT-2B,2010-035A,2026-06-10T07:14:52.950336,14.78652808,.00106493,97.9955,211.8955,207.0849,152.9808,0,U,36795,999,85883,.95911342E-4,.651E-5,0
YAOGAN-10,2010-038A,2026-06-10T08:15:37.081152,14.85326717,.00016337,97.8983,184.8032,89.4904,326.6440,0,U,36834,999,85619,.1396156E-3,.1146E-4,0
RESOURCESAT-2,2011-015A,2026-06-10T06:17:07.429056,14.21604904,.00101225,98.7644,228.7513,277.8570,82.1458,0,U,37387,999,78519,.38418979E-4,.4E-6,0
HAIYANG-2A,2011-043A,2026-06-09T09:28:40.490976,13.74551006,.00063077,99.3399,163.2429,106.3298,253.8545,0,U,37781,999,74558,.33934945E-3,.278E-5,0
RASAT,2011-044D,2026-06-10T07:12:00.209952,14.68159487,.00197161,98.0567,252.8019,211.1629,242.1213,0,U,37791,999,79217,.57817398E-4,.284E-5,0
SRMSAT,2011-058D,2026-06-10T03:29:26.928384,14.11574082,.00119314,19.9712,102.0891,126.5108,263.2638,0,U,37841,999,75682,.51118913E-4,.359E-5,0
PLEIADES 1A,2011-076F,2026-06-10T08:04:35.057568,14.58566611,.00015318,98.1971,236.5311,98.3055,335.9134,0,U,38012,999,77099,.41741268E-4,.148E-5,0
ZIYUAN 1-02C (ZY 1-02C),2011-079A,2026-06-10T07:58:37.964640,14.38208922,.00059293,98.4070,228.7839,339.5803,109.1891,0,U,38038,999,75822,.79018035E-4,.197E-5,0
ARIRANG-3 (KOMPSAT-3),2012-025B,2026-06-10T06:11:37.038912,14.62200077,.00063965,98.1175,118.8377,127.0372,233.1416,0,U,38338,999,75033,.81389846E-4,.363E-5,0
EXACTVIEW-1 (ADS-1B),2012-039C,2026-06-10T01:53:28.317408,14.24982507,.00107813,98.9769,278.3087,186.6290,173.4747,0,U,38709,999,72169,.58756494E-4,.91E-6,0
SPOT 6,2012-047A,2026-06-10T08:06:16.816032,14.58558747,.00014308,98.2117,228.7266,92.4575,267.6788,0,U,38755,999,73205,.43234222E-4,.155E-5,0
PLEIADES 1B,2012-068A,2026-06-10T06:54:43.013376,14.58556456,.00015839,98.1942,236.4346,94.4492,265.6888,0,U,39019,999,71984,.59714174E-4,.232E-5,0
GOKTURK 2,2012-073A,2026-06-10T07:11:14.981280,14.75534245,.00018483,97.6829,359.0766,59.1580,300.9812,0,U,39030,999,72349,.10383594E-4,.24E-6,0
LANDSAT 8,2013-008A,2026-06-10T05:25:58.646208,14.57113991,.00014617,98.2302,231.4442,96.0109,264.1256,0,U,39084,999,69688,.65752383E-4,.251E-5,0
SARAL,2013-009A,2026-06-10T06:24:57.520224,14.32854200,.00010785,98.5558,347.9224,344.8345,15.2806,0,U,39086,999,69461,.45029254E-4,.79E-6,0
GAOFEN-1,2013-018A,2026-06-10T06:52:14.204064,14.76527222,.00158576,97.9092,233.4941,290.7808,69.1703,0,U,39150,999,70722,-.3324727E-4,-.283E-5,0
VNREDSAT 1,2013-021B,2026-06-10T07:50:18.264192,14.64850138,.00016706,97.9083,215.0062,89.2633,270.8762,0,U,39160,999,69928,.11167886E-3,.551E-5,0
ARIRANG-5 (KOMPSAT-5),2013-042A,2026-06-08T23:38:58.020000,15.04559791,.0004248,97.6218,346.8017,139.4546,220.6997,0,U,39227,999,70262,.13610837E-3,.1848E-4,0
SKYSAT-A,2013-066C,2026-06-10T02:44:50.371296,15.12936991,.00207407,97.3820,210.7368,343.1776,16.8765,0,U,39418,999,68741,.13546059E-3,.2334E-4,0
DUBAISAT-2,2013-066D,2026-06-10T05:54:15.143040,15.10133647,.00127411,97.4568,151.5722,61.7839,298.4675,0,U,39419,999,68534,.30821856E-3,.4973E-4,0
GPM-CORE,2014-009C,2026-06-10T06:44:59.157600,15.45474590,.00121074,64.9728,331.2551,270.7173,89.2581,0,U,39574,999,69674,.17029267E-3,.7975E-4,0
SENTINEL-1A,2014-016A,2026-06-10T07:18:40.908096,14.59200913,.0001436,98.1784,168.9379,83.9838,276.1526,0,U,39634,999,64901,.33811604E-4,.114E-5,0
KAZEOSAT 1,2014-024A,2026-06-10T06:59:35.176704,14.42077373,.00014543,98.3202,233.9100,77.0023,283.1329,0,U,39731,999,63756,.44603971E-4,.104E-5,0
